STARLINK-2472
1 28130C 21027AQ  21325.13609935 -.00018053  00000-0 -12097-2 0  3250
2 28130  53.0541  22.6259 0001442  69.4138 190.5256 15.06411783    19
